ONEWEB-0207             
1 48242U 21031AJ  24125.89763085 -.00000143  00000+0 -41975-3 0  9995
2 48242  87.8939  83.5517 0002123  76.0815 284.0551 13.14502635146703
ONEWEB-0208             
1 48243U 21031AK  24125.11821599  .00000205  00000+0  51825-3 0  9998
2 48243  87.8938  83.7224 0002236  85.3025 274.8360 13.14504093146616
ONEWEB-0200             
1 48244U 21031AL  24124.92950415 -.00000062  00000+0 -20105-3 0  9997
2 48244  87.8934  83.7580 0002260  87.1685 272.9704 13.14504055146515
ONEWEB-0217             
1 48245U 21031AM  24124.86925800  .00000255  00000+0  65220-3 0  9990
2 48245  87.8936  83.7546 0002349  89.8282 270.3117 13.14503338146467
ONEWEB-0211             
1 48767U 21045A   24124.83141640 -.00000093  00000+0 -28098-3 0  9997
2 48767  87.9046  53.2724 0001994  81.6686 278.4671 13.15550505142607
ONEWEB-0223             
1 48768U 21045B   24125.15782920  .00000076  00000+0  16848-3 0  9995
2 48768  87.9048  53.2134 0001906 103.4413 256.6929 13.15549036143779
ONEWEB-0230             
1 48769U 21045C   24125.81381739  .00000017  00000+0  10901-4 0  9992
2 48769  87.9052  53.1542 0001773  78.7777 281.3553 13.15551272144095
ONEWEB-0237             
1 48770U 21045D   24125.80273027  .00000047  00000+0  91952-4 0  9991
2 48770  87.9060  53.0849 0001808  93.1706 266.9631 13.15550148143835
